From: horizons@ssd.jpl.nasa.gov (Horizons Ephemeris System)
Subject: [Horizons] SMALL BODY #C(500@10)_T(NEAT (P/2001 Q6)) (1/1)
Date: February 16, 2021 at 11:02:24 PM PST

Automated mail xmit by MAIL_REQUEST, PID= 25395 Tue Feb 16 23:02:24 2021
++++++++++++++++++++++++++++++++ (part 1 of 1)  +++++++++++++++++++++++++++++++


*******************************************************************************
Ephemeris / MAIL_REQUEST Tue Feb 16 23:02:24 2021 Pasadena, USA  / Horizons
*******************************************************************************
Target body name: NEAT (P/2001 Q6)                {source: JPL#53}
Center body name: Sun (10)                        {source: DE431}
Center-site name: BODY CENTER
*******************************************************************************
Start time      : A.D. 2001-May-09 00:00:00.0000 TDB
Stop  time      : A.D. 2002-May-09 00:00:00.0000 TDB
Step-size       : 10080 minutes
*******************************************************************************
Center geodetic : 0.00000000,0.00000000,0.0000000 {E-lon(deg),Lat(deg),Alt(km)}
Center cylindric: 0.00000000,0.00000000,0.0000000 {E-lon(deg),Dxy(km),Dz(km)}
Center radii    : 696000.0 x 696000.0 x 696000.0 k{Equator, meridian, pole}    
Small perturbers: Yes                             {source: SB431-N16}
Output units    : AU-D
Output type     : GEOMETRIC cartesian states
Output format   : 6 (LT, range, and range-rate)
Reference frame : Ecliptic of J2000.0
*******************************************************************************
Initial IAU76/J2000 heliocentric ecliptic osculating elements (au, days, deg.):
 EPOCH=  2452207.5 ! 2001-Oct-25.0000000 (TDB)    RMSW= n.a.                  
  EC= .8238563067834858   QR= 1.40817719319207    TP= 2452222.9661386008      
  OM= 22.13588863810931   W= 43.32930429362097    IN= 56.8552151654871        
 Equivalent ICRF heliocentric equatorial cartesian coordinates (au, au/d):
  X= 9.771649921562082E-01  Y= 5.179020302439200E-01  Z= 8.951054125686810E-01
 VX=-1.397469705546983E-02 VY=-1.957955921698292E-03 VZ= 1.340987182249731E-02
Comet physical (GM= km^3/s^2; RAD= km):                                        
  GM= n.a.                RAD= n.a.                                           
  M1=  13.3     M2=  16.6     k1=  15.    k2=  5.      PHCOF=  .030           
*******************************************************************************
           JDTDB,            Calendar Date (TDB),                     LT,                     RG,                     RR,
**************************************************************************************************************************
$$SOE
2452038.500000000, A.D. 2001-May-09 00:00:00.0000,  1.515022639697873E-02,  2.623180384436462E+00, -8.839542782783700E-03,
2452045.500000000, A.D. 2001-May-16 00:00:00.0000,  1.479277449662772E-02,  2.561289506451477E+00, -8.842372272151254E-03,
2452052.500000000, A.D. 2001-May-23 00:00:00.0000,  1.443536017834821E-02,  2.499405135600457E+00, -8.837498172438682E-03,
2452059.500000000, A.D. 2001-May-30 00:00:00.0000,  1.407831846555325E-02,  2.437585279389192E+00, -8.823726457831686E-03,
2452066.500000000, A.D. 2001-Jun-06 00:00:00.0000,  1.372203615719761E-02,  2.375896909980624E+00, -8.799685983153246E-03,
2452073.500000000, A.D. 2001-Jun-13 00:00:00.0000,  1.336695947253987E-02,  2.314417287844373E+00, -8.763804098263361E-03,
2452080.500000000, A.D. 2001-Jun-20 00:00:00.0000,  1.301360273166627E-02,  2.253235464742848E+00, -8.714279884973905E-03,
2452087.500000000, A.D. 2001-Jun-27 00:00:00.0000,  1.266255815531890E-02,  2.192453980518897E+00, -8.649055682346871E-03,
2452094.500000000, A.D. 2001-Jul-04 00:00:00.0000,  1.231450683404467E-02,  2.132190762345087E+00, -8.565787930440613E-03,
2452101.500000000, A.D. 2001-Jul-11 00:00:00.0000,  1.197023086346587E-02,  2.072581225880652E+00, -8.461818976351438E-03,
2452108.500000000, A.D. 2001-Jul-18 00:00:00.0000,  1.163062655976974E-02,  2.013780563462594E+00, -8.334152323967560E-03,
2452115.500000000, A.D. 2001-Jul-25 00:00:00.0000,  1.129671854736186E-02,  1.955966183307247E+00, -8.179435004503431E-03,
2452122.500000000, A.D. 2001-Aug-01 00:00:00.0000,  1.096967431231490E-02,  1.899340229361814E+00, -7.993953654971219E-03,
2452129.500000000, A.D. 2001-Aug-08 00:00:00.0000,  1.065081847036149E-02,  1.844132051730754E+00, -7.773654020944924E-03,
2452136.500000000, A.D. 2001-Aug-15 00:00:00.0000,  1.034164566791944E-02,  1.790600440419060E+00, -7.514189999528688E-03,
2452143.500000000, A.D. 2001-Aug-22 00:00:00.0000,  1.004383072228420E-02,  1.739035381052149E+00, -7.211014304378369E-03,
2452150.500000000, A.D. 2001-Aug-29 00:00:00.0000,  9.759233931942833E-03,  1.689758974328224E+00, -6.859529455082459E-03,
2452157.500000000, A.D. 2001-Sep-05 00:00:00.0000,  9.489898824584553E-03,  1.643125046098397E+00, -6.455312958649199E-03,
2452164.500000000, A.D. 2001-Sep-12 00:00:00.0000,  9.238039108212271E-03,  1.599516888021680E+00, -5.994427731187207E-03,
2452171.500000000, A.D. 2001-Sep-19 00:00:00.0000,  9.006011263429987E-03,  1.559342512066656E+00, -5.473821635499298E-03,
2452178.500000000, A.D. 2001-Sep-26 00:00:00.0000,  8.796269337496171E-03,  1.523026823344458E+00, -4.891804850879970E-03,
2452185.500000000, A.D. 2001-Oct-03 00:00:00.0000,  8.611299396504698E-03,  1.491000270855714E+00, -4.248570836241133E-03,
2452192.500000000, A.D. 2001-Oct-10 00:00:00.0000,  8.453533040650382E-03,  1.463683873122964E+00, -3.546698206745575E-03,
2452199.500000000, A.D. 2001-Oct-17 00:00:00.0000,  8.325242496509788E-03,  1.441471053982163E+00, -2.791543337919968E-03,
2452206.500000000, A.D. 2001-Oct-24 00:00:00.0000,  8.228423825173420E-03,  1.424707420697620E+00, -1.991417904060339E-03,
2452213.500000000, A.D. 2001-Oct-31 00:00:00.0000,  8.164678956627860E-03,  1.413670338848431E+00, -1.157456272389729E-03,
2452220.500000000, A.D. 2001-Nov-07 00:00:00.0000,  8.135110334281435E-03,  1.408550690593576E+00, -3.031204487075997E-04,
2452227.500000000, A.D. 2001-Nov-14 00:00:00.0000,  8.140242772428761E-03,  1.409439344711318E+00,  5.566410595293144E-04,
2452234.500000000, A.D. 2001-Nov-21 00:00:00.0000,  8.179984660838495E-03,  1.416320439381801E+00,  1.406473747142054E-03,
2452241.500000000, A.D. 2001-Nov-28 00:00:00.0000,  8.253634831267363E-03,  1.429072571087103E+00,  2.231763795967270E-03,
2452248.500000000, A.D. 2001-Dec-05 00:00:00.0000,  8.359933910249154E-03,  1.447477686071015E+00,  3.019661971710684E-03,
2452255.500000000, A.D. 2001-Dec-12 00:00:00.0000,  8.497151872438723E-03,  1.471236239730636E+00,  3.759830114364030E-03,
2452262.500000000, A.D. 2001-Dec-19 00:00:00.0000,  8.663198657902780E-03,  1.499986349406549E+00,  4.444829330487987E-03,
2452269.500000000, A.D. 2001-Dec-26 00:00:00.0000,  8.855743166741115E-03,  1.533324397662804E+00,  5.070153162199634E-03,
2452276.500000000, A.D. 2002-Jan-02 00:00:00.0000,  9.072327507819507E-03,  1.570824813841815E+00,  5.633975021603638E-03,
2452283.500000000, A.D. 2002-Jan-09 00:00:00.0000,  9.310466965141550E-03,  1.612057382705083E+00,  6.136712185482964E-03,
2452290.500000000, A.D. 2002-Jan-16 00:00:00.0000,  9.567730393493306E-03,  1.656601164507564E+00,  6.580509622150589E-03,
2452297.500000000, A.D. 2002-Jan-23 00:00:00.0000,  9.841799575823186E-03,  1.704054772409400E+00,  6.968727019111558E-03,
2452304.500000000, A.D. 2002-Jan-30 00:00:00.0000,  1.013050886810342E-02,  1.754043236770901E+00,  7.305482867030257E-03,
2452311.500000000, A.D. 2002-Feb-06 00:00:00.0000,  1.043186801575059E-02,  1.806221955693291E+00,  7.595280190831444E-03,
2452318.500000000, A.D. 2002-Feb-13 00:00:00.0000,  1.074407164090720E-02,  1.860278337690600E+00,  7.842721675991324E-03,
2452325.500000000, A.D. 2002-Feb-20 00:00:00.0000,  1.106549894484299E-02,  1.915931750162034E+00,  8.052308447304493E-03,
2452332.500000000, A.D. 2002-Feb-27 00:00:00.0000,  1.139470672517427E-02,  1.972932310360994E+00,  8.228307987392700E-03,
2452339.500000000, A.D. 2002-Mar-06 00:00:00.0000,  1.173041819385522E-02,  2.031058949290288E+00,  8.374676028644180E-03,
2452346.500000000, A.D. 2002-Mar-13 00:00:00.0000,  1.207150948969040E-02,  2.090117076416051E+00,  8.495018420563952E-03,
2452353.500000000, A.D. 2002-Mar-20 00:00:00.0000,  1.241699525141532E-02,  2.149936081724092E+00,  8.592580994683767E-03,
2452360.500000000, A.D. 2002-Mar-27 00:00:00.0000,  1.276601418254959E-02,  2.210366836351692E+00,  8.670257911050213E-03,
2452367.500000000, A.D. 2002-Apr-03 00:00:00.0000,  1.311781520272134E-02,  2.271279294763751E+00,  8.730611300510166E-03,
2452374.500000000, A.D. 2002-Apr-10 00:00:00.0000,  1.347174452984440E-02,  2.332560258101115E+00,  8.775896931222580E-03,
2452381.500000000, A.D. 2002-Apr-17 00:00:00.0000,  1.382723385949017E-02,  2.394111327502243E+00,  8.808092440765433E-03,
2452388.500000000, A.D. 2002-Apr-24 00:00:00.0000,  1.418378972006145E-02,  2.455847061008706E+00,  8.828927304228223E-03,
2452395.500000000, A.D. 2002-May-01 00:00:00.0000,  1.454098405257373E-02,  2.517693342504864E+00,  8.839912611122670E-03,
2452402.500000000, A.D. 2002-May-08 00:00:00.0000,  1.489844590122633E-02,  2.579585942984875E+00,  8.842365982878617E-03,
$$EOE
**************************************************************************************************************************
Coordinate system description:

 Ecliptic at the standard reference epoch

   Reference epoch: J2000.0
   X-Y plane: adopted Earth orbital plane at the reference epoch
              Note: obliquity of 84381.448 arcseconds (IAU76) wrt ICRF equator
   X-axis   : ICRF
   Z-axis   : perpendicular to the X-Y plane in the directional (+ or -) sense
              of Earth's north pole at the reference epoch.

 Symbol meaning [1 au= 149597870.700 km, 1 day= 86400.0 s]:

   JDTDB    Julian Day Number, Barycentric Dynamical Time
     LT     One-way down-leg Newtonian light-time (day)
     RG     Range; distance from coordinate center (au)
     RR     Range-rate; radial velocity wrt coord. center (au/day)

Geometric states/elements have no aberrations applied.


Computations by ...
    Solar System Dynamics Group, Horizons On-Line Ephemeris System
    4800 Oak Grove Drive, Jet Propulsion Laboratory
    Pasadena, CA  91109   USA
    Information  : https://ssd.jpl.nasa.gov/
    Documentation: https://ssd.jpl.nasa.gov/?horizons_doc
    Connect      : https://ssd.jpl.nasa.gov/?horizons (browser)
                   telnet ssd.jpl.nasa.gov 6775       (command-line)
                   e-mail command interface available
                   Script and CGI interfaces available
    Author       : Jon.D.Giorgini@jpl.nasa.gov
*******************************************************************************
